NORAD_CAT_ID,OBJECT_NAME,OBJECT_TYPE,EPOCH,MEAN_MOTION,ECCENTRICITY,INCLINATION,RA_OF_ASC_NODE,ARG_OF_PERICENTER,MEAN_ANOMALY,BSTAR,MEAN_MOTION_DOT,MEAN_MOTION_DDOT,TLE_LINE0,TLE_LINE1,TLE_LINE2,SEMIMAJOR_AXIS,PERIOD,APOGEE,PERIGEE,DECAYED
53897.0,STARLINK-5035,PAYLOAD,2024-02-13 21:03:21,15.0884329,0.0001365,53.2176,112.6031,89.9252,270.1897,-9.059e-05,-1.73e-05,0.0,0 STARLINK-5035,1 53897U 22119M   24044.87732782 -.00001730  00000-0 -90590-4 0  9995,2 53897  53.2176 112.6031 0001365  89.9252 270.1897 15.08843290 77730,6917.87,95.437,540.68,538.791,0.0
53897.0,STARLINK-5035,PAYLOAD,2024-02-14 05:00:16,15.08840736,0.0001475,53.2169,111.115,113.7145,246.4002,2.2723e-05,7.4e-07,0.0,0 STARLINK-5035,1 53897U 22119M   24045.20852690  .00000074  00000-0  22723-4 0  9995,2 53897  53.2169 111.1150 0001475 113.7145 246.4002 15.08840736 77362,6917.878,95.438,540.764,538.723,0.0
53897.0,STARLINK-5035,PAYLOAD,2024-02-14 11:21:48,15.08850689,0.0001489,53.2175,109.9279,111.7089,248.4062,0.00013105,1.799e-05,0.0,0 STARLINK-5035,1 53897U 22119M   24045.47347815  .00001799  00000-0  13105-3 0  9990,2 53897  53.2175 109.9279 0001489 111.7089 248.4062 15.08850689 77407,6917.848,95.437,540.743,538.683,0.0
53897.0,STARLINK-5035,PAYLOAD,2024-02-14 20:54:07,15.08843924,0.0001387,53.2167,108.1416,91.442,268.6731,-2.0749e-05,-6.18e-06,0.0,0 STARLINK-5035,1 53897U 22119M   24045.87092486 -.00000618  00000-0 -20749-4 0  9999,2 53897  53.2167 108.1416 0001387  91.4420 268.6731 15.08843924 77885,6917.868,95.437,540.693,538.774,0.0
53897.0,STARLINK-5035,PAYLOAD,2024-02-15 11:12:37,15.08827937,0.0001491,53.2187,105.4679,101.4248,258.6912,0.00011634,1.563e-05,0.0,0 STARLINK-5035,1 53897U 22119M   24046.46709888  .00001563  00000-0  11634-3 0  9996,2 53897  53.2187 105.4679 0001491 101.4248 258.6912 15.08827937 77554,6917.917,95.438,540.814,538.751,0.0
53897.0,STARLINK-5035,PAYLOAD,2024-02-15 20:44:55,15.08839146,0.0001285,53.217,103.6814,98.6561,261.4577,0.00011747,1.582e-05,0.0,0 STARLINK-5035,1 53897U 22119M   24046.86453254  .00001582  00000-0  11747-3 0  9999,2 53897  53.2170 103.6814 0001285  98.6561 261.4577 15.08839146 78031,6917.883,95.438,540.637,538.859,0.0
53897.0,STARLINK-5035,PAYLOAD,2024-02-16 03:06:28,15.08841183,0.0001351,53.2176,102.4924,94.9026,265.212,9.0429e-05,1.152e-05,0.0,0 STARLINK-5035,1 53897U 22119M   24047.12949292  .00001152  00000-0  90429-4 0  9999,2 53897  53.2176 102.4924 0001351  94.9026 265.2120 15.08841183 77652,6917.877,95.437,540.676,538.807,0.0
53897.0,STARLINK-5035,PAYLOAD,2024-02-16 11:03:23,15.0884833,0.0001394,53.217,101.0049,97.679,262.4361,6.2489e-05,7.07e-06,0.0,0 STARLINK-5035,1 53897U 22119M   24047.46068914  .00000707  00000-0  62489-4 0  9999,2 53897  53.2170 101.0049 0001394  97.6790 262.4361 15.08848330 78124,6917.855,95.437,540.684,538.756,0.0
53897.0,STARLINK-5035,PAYLOAD,2024-02-17 02:57:15,15.08833552,0.0001583,53.2187,98.0331,92.3506,267.7667,0.0001382,1.912e-05,0.0,0 STARLINK-5035,1 53897U 22119M   24048.12309907  .00001912  00000-0  13820-3 0  9996,2 53897  53.2187  98.0331 0001583  92.3506 267.7667 15.08833552 77809,6917.9,95.438,540.86,538.67,0.0
53897.0,STARLINK-5035,PAYLOAD,2024-02-17 10:54:11,15.08840302,0.0001455,53.2176,96.5442,86.2331,273.8828,8.201e-05,1.017e-05,0.0,0 STARLINK-5035,1 53897U 22119M   24048.45429732  .00001017  00000-0  82010-4 0  9995,2 53897  53.2176  96.5442 0001455  86.2331 273.8828 15.08840302 78279,6917.879,95.438,540.751,538.738,0.0
53897.0,STARLINK-5035,PAYLOAD,2024-02-18 09:09:34,15.08846703,0.0001562,53.2168,92.3798,89.0831,271.034,0.00013334,1.835e-05,0.0,0 STARLINK-5035,1 53897U 22119M   24049.38165244  .00001835  00000-0  13334-3 0  9993,2 53897  53.2168  92.3798 0001562  89.0831 271.0340 15.08846703 77991,6917.86,95.437,540.805,538.644,0.0
53897.0,STARLINK-5035,PAYLOAD,2024-02-18 12:20:20,15.08853266,0.0001527,53.2166,91.7835,98.5026,261.6139,0.00014052,1.95e-05,0.0,0 STARLINK-5035,1 53897U 22119M   24049.51412713  .00001950  00000-0  14052-3 0  9990,2 53897  53.2166  91.7835 0001527  98.5026 261.6139 15.08853266 78439,6917.84,95.437,540.761,538.648,0.0
53897.0,STARLINK-5035,PAYLOAD,2024-02-18 20:17:16,15.08844765,0.0001579,53.2167,90.2961,96.5161,263.6011,0.00011076,1.475e-05,0.0,0 STARLINK-5035,1 53897U 22119M   24049.84533341  .00001475  00000-0  11076-3 0  9992,2 53897  53.2167  90.2961 0001579  96.5161 263.6011 15.08844765 78489,6917.866,95.437,540.823,538.638,0.0
53897.0,STARLINK-5035,PAYLOAD,2024-02-19 02:38:49,15.08840789,0.000178,53.216,89.1075,91.1766,268.943,9.8374e-05,1.278e-05,0.0,0 STARLINK-5035,1 53897U 22119M   24050.11029718  .00001278  00000-0  98374-4 0  9990,2 53897  53.2160  89.1075 0001780  91.1766 268.9430 15.08840789 78105,6917.878,95.438,540.974,538.512,0.0
53897.0,STARLINK-5035,PAYLOAD,2024-02-19 09:00:22,15.08842277,0.0001575,53.2162,87.9189,90.6835,269.4338,9.7558e-05,1.265e-05,0.0,0 STARLINK-5035,1 53897U 22119M   24050.37525614  .00001265  00000-0  97558-4 0  9993,2 53897  53.2162  87.9189 0001575  90.6835 269.4338 15.08842277 78569,6917.873,95.437,540.828,538.649,0.0
53897.0,STARLINK-5035,PAYLOAD,2024-02-20 08:51:09,15.08846108,0.0001579,53.217,83.4579,94.8886,265.2286,-4.5553e-05,-1.013e-05,0.0,0 STARLINK-5035,1 53897U 22119M   24051.36885738 -.00001013  00000-0 -45553-4 0  9990,2 53897  53.2170  83.4579 0001579  94.8886 265.2286 15.08846108 78291,6917.862,95.437,540.819,538.634,0.0
53897.0,STARLINK-5035,PAYLOAD,2024-02-21 02:20:24,15.0883494,0.0001498,53.2168,80.1867,99.3003,260.8159,6.8054e-05,7.95e-06,0.0,0 STARLINK-5035,1 53897U 22119M   24052.09750193  .00000795  00000-0  68054-4 0  9992,2 53897  53.2168  80.1867 0001498  99.3003 260.8159 15.08834940 78407,6917.896,95.438,540.797,538.725,0.0
53897.0,STARLINK-5035,PAYLOAD,2024-02-21 08:41:56,15.08832831,0.0001563,53.2173,78.9991,94.5666,265.5504,0.00021917,3.201e-05,0.0,0 STARLINK-5035,1 53897U 22119M   24052.36246198  .00003201  00000-0  21917-3 0  9998,2 53897  53.2173  78.9991 0001563  94.5666 265.5504 15.08832831 78864,6917.902,95.438,540.849,538.686,0.0
53897.0,STARLINK-5035,PAYLOAD,2024-02-21 18:14:15,15.08838644,0.0001407,53.217,77.2164,97.0106,263.1046,6.9089e-06,-1.78e-06,0.0,0 STARLINK-5035,1 53897U 22119M   24052.75990192 -.00000178  00000-0  69089-5 0  9996,2 53897  53.2170  77.2164 0001407  97.0106 263.1046 15.08838644 78929,6917.885,95.438,540.723,538.776,0.0
53897.0,STARLINK-5035,PAYLOAD,2024-02-22 08:32:43,15.08836469,0.0001478,53.2174,74.5401,102.1663,257.9495,8.0199e-05,9.89e-06,0.0,0 STARLINK-5035,1 53897U 22119M   24053.35606385  .00000989  00000-0  80199-4 0  9994,2 53897  53.2174  74.5401 0001478 102.1663 257.9495 15.08836469 78596,6917.891,95.438,540.779,538.734,0.0
53897.0,STARLINK-5035,PAYLOAD,2024-02-22 18:05:02,15.08837619,0.0001458,53.2175,72.7559,100.9259,259.1898,8.6746e-05,1.093e-05,0.0,0 STARLINK-5035,1 53897U 22119M   24053.75350387  .00001093  00000-0  86746-4 0  9997,2 53897  53.2175  72.7559 0001458 100.9259 259.1898 15.08837619 79079,6917.888,95.438,540.761,538.744,0.0
53897.0,STARLINK-5035,PAYLOAD,2024-02-23 11:34:17,15.08840641,0.0001519,53.2176,69.4824,98.0578,262.0587,5.3997e-05,5.71e-06,0.0,0 STARLINK-5035,1 53897U 22119M   24054.48214415  .00000571  00000-0  53997-4 0  9991,2 53897  53.2176  69.4824 0001519  98.0578 262.0587 15.08840641 78769,6917.878,95.438,540.794,538.693,0.0
53897.0,STARLINK-5035,PAYLOAD,2024-02-24 00:17:22,15.08829645,0.0001197,53.2188,67.1007,84.2492,275.8637,0.00014775,2.064e-05,0.0,0 STARLINK-5035,1 53897U 22119M   24055.01206985  .00002064  00000-0  14775-3 0  9993,2 53897  53.2188  67.1007 0001197  84.2492 275.8637 15.08829645 78842,6917.912,95.438,540.605,538.949,0.0
53897.0,STARLINK-5035,PAYLOAD,2024-02-24 08:14:18,15.08842274,0.0001576,53.2182,65.615,94.6507,265.4666,8.0132e-05,9.88e-06,0.0,0 STARLINK-5035,1 53897U 22119M   24055.34326530  .00000988  00000-0  80132-4 0  9992,2 53897  53.2182  65.6150 0001576  94.6507 265.4666 15.08842274 78896,6917.873,95.437,540.829,538.648,0.0
53897.0,STARLINK-5035,PAYLOAD,2024-02-24 17:46:36,15.0884665,0.0001509,53.2179,63.8315,91.3728,268.7437,2.6304e-05,1.31e-06,0.0,0 STARLINK-5035,1 53897U 22119M   24055.74070345  .00000131  00000-0  26304-4 0  9997,2 53897  53.2179  63.8315 0001509  91.3728 268.7437 15.08846650 79378,6917.86,95.437,540.769,538.681,0.0
53897.0,STARLINK-5035,PAYLOAD,2024-02-25 08:05:04,15.08847088,0.0001446,53.217,61.1567,83.0813,277.0344,0.00012632,1.723e-05,0.0,0 STARLINK-5035,1 53897U 22119M   24056.33686139  .00001723  00000-0  12632-3 0  9993,2 53897  53.2170  61.1567 0001446  83.0813 277.0344 15.08847088 79468,6917.859,95.437,540.724,538.723,0.0
53897.0,STARLINK-5035,PAYLOAD,2024-02-25 17:37:24,15.08841674,0.0001536,53.2184,59.3707,84.7169,275.3998,6.3376e-05,7.21e-06,0.0,0 STARLINK-5035,1 53897U 22119M   24056.73430629  .00000721  00000-0  63376-4 0  9997,2 53897  53.2184  59.3707 0001536  84.7169 275.3998 15.08841674 79102,6917.875,95.437,540.803,538.678,0.0
53897.0,STARLINK-5035,PAYLOAD,2024-02-26 06:20:29,15.08841733,0.0001581,53.2181,56.9929,86.8879,273.2294,4.0791e-05,3.61e-06,0.0,0 STARLINK-5035,1 53897U 22119M   24057.26422735  .00000361  00000-0  40791-4 0  9991,2 53897  53.2181  56.9929 0001581  86.8879 273.2294 15.08841733 79606,6917.875,95.437,540.834,538.646,0.0
53897.0,STARLINK-5035,PAYLOAD,2024-02-27 03:00:29,15.08844299,0.0001659,53.218,53.1282,82.8479,277.2702,6.8537e-05,8.03e-06,0.0,0 STARLINK-5035,1 53897U 22119M   24058.12534473  .00000803  00000-0  68537-4 0  9999,2 53897  53.2180  53.1282 0001659  82.8479 277.2702 15.08844299 79310,6917.867,95.437,540.88,538.585,0.0
53897.0,STARLINK-5035,PAYLOAD,2024-02-27 06:11:15,15.08842094,0.0001213,53.2178,52.5308,96.1441,263.969,0.00015545,2.187e-05,0.0,0 STARLINK-5035,1 53897U 22119M   24058.25782232  .00002187  00000-0  15545-3 0  9998,2 53897  53.2178  52.5308 0001213  96.1441 263.9690 15.08842094 79759,6917.874,95.437,540.578,538.9,0.0
